NORAD_CAT_ID,OBJECT_NAME,OBJECT_TYPE,EPOCH,MEAN_MOTION,ECCENTRICITY,INCLINATION,RA_OF_ASC_NODE,ARG_OF_PERICENTER,MEAN_ANOMALY,BSTAR,MEAN_MOTION_DOT,MEAN_MOTION_DDOT,TLE_LINE0,TLE_LINE1,TLE_LINE2,SEMIMAJOR_AXIS,PERIOD,APOGEE,PERIGEE,DECAYED
56478.0,STARLINK-6041,PAYLOAD,2023-06-25 06:31:53,15.69941121,0.0003609,70.0003,117.2417,260.2366,99.8423,6.5888e-05,7.723e-05,0.0,0 STARLINK-6041,1 56478U 23064AG  23176.27214575  .00007723  00000-0  65888-4 0  9995,2 56478  70.0003 117.2417 0003609 260.2366  99.8423 15.69941121  7526,6737.202,91.723,361.499,356.636,0.0
56478.0,STARLINK-6041,PAYLOAD,2023-06-25 23:21:10,15.69919092,0.0003955,69.9987,115.2691,259.0292,101.0459,1.8488e-05,2.01e-05,0.0,0 STARLINK-6041,1 56478U 23064AG  23176.97303674  .00002010  00000-0  18488-4 0  9999,2 56478  69.9987 115.2691 0003955 259.0292 101.0459 15.69919092  7633,6737.265,91.724,361.795,356.466,0.0
56478.0,STARLINK-6041,PAYLOAD,2023-06-26 13:06:56,15.69935508,0.000384,69.9996,113.6574,262.8268,97.2491,7.1574e-05,8.407e-05,0.0,0 STARLINK-6041,1 56478U 23064AG  23177.54648444  .00008407  00000-0  71574-4 0  9991,2 56478  69.9996 113.6574 0003840 262.8268  97.2491 15.69935508  7725,6737.219,91.724,361.671,356.496,0.0
56478.0,STARLINK-6041,PAYLOAD,2023-06-27 05:56:12,15.69936202,0.0003754,69.9997,111.687,262.0457,98.0313,6.1122e-05,7.147e-05,0.0,0 STARLINK-6041,1 56478U 23064AG  23178.24736859  .00007147  00000-0  61122-4 0  9995,2 56478  69.9997 111.6870 0003754 262.0457  98.0313 15.69936202  7835,6737.217,91.723,361.611,356.552,0.0
56478.0,STARLINK-6041,PAYLOAD,2023-06-28 04:52:29,15.69926886,0.0003724,69.9995,109.0003,264.192,95.8851,2.1113e-05,2.327e-05,0.0,0 STARLINK-6041,1 56478U 23064AG  23179.20312008  .00002327  00000-0  21113-4 0  9999,2 56478  69.9995 109.0003 0003724 264.1920  95.8851 15.69926886  7982,6737.243,91.724,361.617,356.599,0.0
56478.0,STARLINK-6041,PAYLOAD,2023-06-29 05:20:31,15.69914158,0.0003702,69.9998,106.1334,265.6372,94.44,-1.5881e-05,-2.121e-05,0.0,0 STARLINK-6041,1 56478U 23064AG  23180.22259248 -.00002121  00000-0 -15881-4 0  9998,2 56478  69.9998 106.1334 0003702 265.6372  94.4400 15.69914158  8146,6737.28,91.725,361.639,356.65,0.0
56478.0,STARLINK-6041,PAYLOAD,2023-06-30 21:06:04,15.69927395,0.0003729,69.999,101.4764,273.2203,86.8566,3.3725e-06,1.93e-06,0.0,0 STARLINK-6041,1 56478U 23064AG  23181.87922236  .00000193  00000-0  33725-5 0  9997,2 56478  69.9990 101.4764 0003729 273.2203  86.8566 15.69927395  8404,6737.242,91.724,361.619,356.594,0.0
56478.0,STARLINK-6041,PAYLOAD,2023-07-01 04:44:51,15.69909865,0.0003184,69.9995,100.5807,273.7128,86.3704,-2.6252e-05,-3.366e-05,0.0,0 STARLINK-6041,1 56478U 23064AG  23182.19781454 -.00003366  00000-0 -26252-4 0  9991,2 56478  69.9995 100.5807 0003184 273.7128  86.3704 15.69909865  8459,6737.292,91.725,361.302,357.012,0.0
56478.0,STARLINK-6041,PAYLOAD,2023-07-02 02:09:22,15.69925838,0.0003502,69.9993,98.0722,271.7725,88.307,1.3001e-05,1.351e-05,0.0,0 STARLINK-6041,1 56478U 23064AG  23183.08984128  .00001351  00000-0  13001-4 0  9991,2 56478  69.9993  98.0722 0003502 271.7725  88.3070 15.69925838  8590,6737.246,91.724,361.471,356.752,0.0
56478.0,STARLINK-6041,PAYLOAD,2023-07-02 22:02:09,15.6992386,0.0003611,69.9992,95.7432,275.2509,84.8275,7.0088e-06,6.3e-06,0.0,0 STARLINK-6041,1 56478U 23064AG  23183.91816118  .00000630  00000-0  70088-5 0  9994,2 56478  69.9992  95.7432 0003611 275.2509  84.8275 15.69923860  8727,6737.252,91.724,361.55,356.684,0.0
56478.0,STARLINK-6041,PAYLOAD,2023-07-04 03:05:26,15.69925548,0.0003414,69.999,92.3394,265.6069,94.4737,1.4051e-05,1.477e-05,0.0,0 STARLINK-6041,1 56478U 23064AG  23185.12877835  .00001477  00000-0  14051-4 0  9999,2 56478  69.9990  92.3394 0003414 265.6069  94.4737 15.69925548  8916,6737.247,91.724,361.412,356.812,0.0
56478.0,STARLINK-6041,PAYLOAD,2023-07-05 03:33:28,15.6992657,0.0003835,69.9985,89.4733,269.3328,90.7428,1.5129e-05,1.607e-05,0.0,0 STARLINK-6041,1 56478U 23064AG  23186.14824429  .00001607  00000-0  15129-4 0  9995,2 56478  69.9985  89.4733 0003835 269.3328  90.7428 15.69926570  9070,6737.244,91.724,361.693,356.525,0.0
56478.0,STARLINK-6041,PAYLOAD,2023-07-06 04:01:30,15.69927796,0.0003297,69.9996,86.608,258.0883,101.9943,2.1695e-05,2.397e-05,0.0,0 STARLINK-6041,1 56478U 23064AG  23187.16771258  .00002397  00000-0  21695-4 0  9991,2 56478  69.9996  86.6080 0003297 258.0883 101.9943 15.69927796  9235,6737.241,91.724,361.327,356.884,0.0
56478.0,STARLINK-6041,PAYLOAD,2023-07-07 02:57:47,15.69925261,0.0003301,69.9981,83.9194,261.9389,98.1432,1.726e-05,1.863e-05,0.0,0 STARLINK-6041,1 56478U 23064AG  23188.12346441  .00001863  00000-0  17260-4 0  9990,2 56478  69.9981  83.9194 0003301 261.9389  98.1432 15.69925261  9386,6737.248,91.724,361.337,356.889,0.0
56478.0,STARLINK-6041,PAYLOAD,2023-07-08 03:25:49,15.6993158,0.0003381,69.9978,81.0542,266.89,93.1909,1.2613e-05,1.304e-05,0.0,0 STARLINK-6041,1 56478U 23064AG  23189.14292851  .00001304  00000-0  12613-4 0  9995,2 56478  69.9978  81.0542 0003381 266.8900  93.1909 15.69931580  9542,6737.23,91.724,361.373,356.817,0.0
56478.0,STARLINK-6041,PAYLOAD,2023-07-08 18:43:21,15.69910629,0.0003502,69.9953,79.2595,262.6609,97.4188,6.0722e-06,5.17e-06,0.0,0 STARLINK-6041,1 56478U 23064AG  23189.78011037  .00000517  00000-0  60722-5 0  9990,2 56478  69.9953  79.2595 0003502 262.6609  97.4188 15.69910629  9645,6737.29,91.725,361.514,356.795,0.0
56478.0,STARLINK-6041,PAYLOAD,2023-07-09 02:22:06,15.69921021,0.0003404,69.999,78.3669,261.8222,98.2588,2.49e-06,8.7e-07,0.0,0 STARLINK-6041,1 56478U 23064AG  23190.09868889  .00000087  00000-0  24900-5 0  9991,2 56478  69.9990  78.3669 0003404 261.8222  98.2588 15.69921021  9697,6737.26,91.724,361.418,356.832,0.0
56478.0,STARLINK-6041,PAYLOAD,2023-07-09 10:00:51,15.69932911,0.0003506,69.9979,77.47,264.0363,96.0434,2.3918e-05,2.665e-05,0.0,0 STARLINK-6041,1 56478U 23064AG  23190.41726100  .00002665  00000-0  23918-4 0  9997,2 56478  69.9979  77.4700 0003506 264.0363  96.0434 15.69932911  9746,6737.226,91.724,361.453,356.729,0.0
56478.0,STARLINK-6041,PAYLOAD,2023-07-09 19:11:23,15.69921589,0.0003402,69.9984,76.3962,262.3763,97.7046,5.0081e-07,-1.53e-06,0.0,0 STARLINK-6041,1 56478U 23064AG  23190.79957281 -.00000153  00000-0  50081-6 0  9998,2 56478  69.9984  76.3962 0003402 262.3763  97.7046 15.69921589  9803,6737.258,91.724,361.415,356.831,0.0
56478.0,STARLINK-6041,PAYLOAD,2023-07-10 02:50:08,15.69930227,0.0003406,69.9981,75.4988,264.1193,95.9615,1.0068e-05,9.98e-06,0.0,0 STARLINK-6041,1 56478U 23064AG  23191.11814943  .00000998  00000-0  10068-4 0  9997,2 56478  69.9981  75.4988 0003406 264.1193  95.9615 15.69930227  9855,6737.234,91.724,361.393,356.804,0.0
56478.0,STARLINK-6041,PAYLOAD,2023-07-11 01:46:25,15.6992276,0.0003736,69.998,72.8135,259.5691,100.5084,2.8654e-05,3.234e-05,0.0,0 STARLINK-6041,1 56478U 23064AG  23192.07390180  .00003234  00000-0  28654-4 0  9991,2 56478  69.9980  72.8135 0003736 259.5691 100.5084 15.69922760 10001,6737.255,91.724,361.637,356.603,0.0
56478.0,STARLINK-6041,PAYLOAD,2023-07-12 19:03:43,15.6992148,0.0003513,69.9969,67.9731,258.3438,101.7363,2.0478e-06,3.3e-07,0.0,0 STARLINK-6041,1 56478U 23064AG  23193.79425788  .00000033  00000-0  20478-5 0  9995,2 56478  69.9969  67.9731 0003513 258.3438 101.7363 15.69921480 10274,6737.259,91.724,361.49,356.757,0.0
56478.0,STARLINK-6041,PAYLOAD,2023-07-13 18:00:00,15.69930537,0.0003521,69.9972,65.2858,268.7253,91.354,1.1175e-05,1.131e-05,0.0,0 STARLINK-6041,1 56478U 23064AG  23194.75000228  .00001131  00000-0  11175-4 0  9993,2 56478  69.9972  65.2858 0003521 268.7253  91.3540 15.69930537 10429,6737.233,91.724,361.47,356.726,0.0
56478.0,STARLINK-6041,PAYLOAD,2023-07-14 16:56:17,15.69928511,0.0003417,69.9991,62.5974,269.1402,90.9402,9.6537e-06,9.48e-06,0.0,0 STARLINK-6041,1 56478U 23064AG  23195.70575413  .00000948  00000-0  96537-5 0  9993,2 56478  69.9991  62.5974 0003417 269.1402  90.9402 15.69928511 10571,6737.239,91.724,361.406,356.801,0.0
56478.0,STARLINK-6041,PAYLOAD,2023-07-15 00:35:03,15.69912113,0.0003177,69.9999,61.7054,264.7939,95.2894,-2.1569e-05,-2.804e-05,0.0,0 STARLINK-6041,1 56478U 23064AG  23196.02434525 -.00002804  00000-0 -21569-4 0  9994,2 56478  69.9999  61.7054 0003177 264.7939  95.2894 15.69912113 10628,6737.285,91.725,361.291,357.01,0.0
56478.0,STARLINK-6041,PAYLOAD,2023-07-15 17:24:19,15.69923124,0.0003337,69.9995,59.7337,260.995,99.0868,-4.423e-06,-7.44e-06,0.0,0 STARLINK-6041,1 56478U 23064AG  23196.72522525 -.00000744  00000-0 -44230-5 0  9991,2 56478  69.9995  59.7337 0003337 260.9950  99.0868 15.69923124 10733,6737.254,91.724,361.367,356.871,0.0
56478.0,STARLINK-6041,PAYLOAD,2023-07-16 20:55:51,15.69929936,0.0003913,69.9982,56.5088,265.8657,94.2092,2.2081e-05,2.444e-05,0.0,0 STARLINK-6041,1 56478U 23064AG  23197.87212226  .00002444  00000-0  22081-4 0  9998,2 56478  69.9982  56.5088 0003913 265.8657  94.2092 15.69929936 10918,6737.234,91.724,361.736,356.463,0.0
56478.0,STARLINK-6041,PAYLOAD,2023-07-18 01:59:08,15.69924156,0.0003787,69.9985,53.1049,268.6808,91.3954,3.9052e-06,2.57e-06,0.0,0 STARLINK-6041,1 56478U 23064AG  23199.08274105  .00000257  00000-0  39052-5 0  9994,2 56478  69.9985  53.1049 0003787 268.6808  91.3954 15.69924156 11105,6737.251,91.724,361.667,356.565,0.0
56478.0,STARLINK-6041,PAYLOAD,2023-07-18 15:44:54,15.69933636,0.0003879,69.9979,51.4922,268.768,91.3072,1.8481e-05,2.011e-05,0.0,0 STARLINK-6041,1 56478U 23064AG  23199.65618639  .00002011  00000-0  18481-4 0  9993,2 56478  69.9979  51.4922 0003879 268.7680  91.3072 15.69933636 11193,6737.224,91.724,361.702,356.475,0.0
56478.0,STARLINK-6041,PAYLOAD,2023-07-19 17:44:42,15.69932407,0.0003829,69.9992,48.4463,277.0261,83.0499,2.9461e-05,3.332e-05,0.0,0 STARLINK-6041,1 56478U 23064AG  23200.73937648  .00003332  00000-0  29461-4 0  9996,2 56478  69.9992  48.4463 0003829 277.0261  83.0499 15.69932407 11362,6737.227,91.724,361.672,356.513,0.0
